[{"OBJECT_NAME":"SL-8 R/B","OBJECT_ID":"1991-006B","EPOCH":"2026-03-27T06:36:41.827968","MEAN_MOTION":13.77496846,"ECCENTRICITY":0.00219478,"INCLINATION":82.9448,"RA_OF_ASC_NODE":156.9719,"ARG_OF_PERICENTER":349.5976,"MEAN_ANOMALY":73.838,"EPHEMERIS_TYPE":0,"CLASSIFICATION_TYPE":"U","NORAD_CAT_ID":21088,"ELEMENT_SET_NO":999,"REV_AT_EPOCH":76649,"BSTAR":6.1547285e-5,"MEAN_MOTION_DOT":7.6e-7,"MEAN_MOTION_DDOT":0},{"OBJECT_NAME":"OKEAN-3","OBJECT_ID":"1991-039A","EPOCH":"2026-03-27T02:24:16.727040","MEAN_MOTION":15.04905269,"ECCENTRICITY":0.00123118,"INCLINATION":82.5165,"RA_OF_ASC_NODE":319.975,"ARG_OF_PERICENTER":272.256,"MEAN_ANOMALY":87.7257,"EPHEMERIS_TYPE":0,"CLASSIFICATION_TYPE":"U","NORAD_CAT_ID":21397,"ELEMENT_SET_NO":999,"REV_AT_EPOCH":86765,"BSTAR":0.00014975517,"MEAN_MOTION_DOT":2.149e-5,"MEAN_MOTION_DDOT":0},{"OBJECT_NAME":"COSMOS 2151","OBJECT_ID":"1991-042A","EPOCH":"2026-03-27T05:25:26.840640","MEAN_MOTION":15.00177198,"ECCENTRICITY":0.00126047,"INCLINATION":82.4944,"RA_OF_ASC_NODE":66.7547,"ARG_OF_PERICENTER":8.5922,"MEAN_ANOMALY":351.5515,"EPHEMERIS_TYPE":0,"CLASSIFICATION_TYPE":"U","NORAD_CAT_ID":21422,"ELEMENT_SET_NO":999,"REV_AT_EPOCH":86582,"BSTAR":0.0002023428,"MEAN_MOTION_DOT":2.557e-5,"MEAN_MOTION_DDOT":0},{"OBJECT_NAME":"SL-14 R/B","OBJECT_ID":"1991-042B","EPOCH":"2026-03-27T07:32:40.526880","MEAN_MOTION":14.81846921,"ECCENTRICITY":0.00170851,"INCLINATION":82.4954,"RA_OF_ASC_NODE":203.6583,"ARG_OF_PERICENTER":178.3157,"MEAN_ANOMALY":181.8118,"EPHEMERIS_TYPE":0,"CLASSIFICATION_TYPE":"U","NORAD_CAT_ID":21423,"ELEMENT_SET_NO":999,"REV_AT_EPOCH":85568,"BSTAR":5.7249857e-5,"MEAN_MOTION_DOT":4.77e-6,"MEAN_MOTION_DDOT":0},{"OBJECT_NAME":"ERS-1","OBJECT_ID":"1991-050A","EPOCH":"2026-03-27T06:48:18.415872","MEAN_MOTION":14.39462297,"ECCENTRICITY":0.00326159,"INCLINATION":98.7868,"RA_OF_ASC_NODE":104.9597,"ARG_OF_PERICENTER":148.4656,"MEAN_ANOMALY":211.8495,"EPHEMERIS_TYPE":0,"CLASSIFICATION_TYPE":"U","NORAD_CAT_ID":21574,"ELEMENT_SET_NO":999,"REV_AT_EPOCH":81826,"BSTAR":0.00011631516,"MEAN_MOTION_DOT":3.18e-6,"MEAN_MOTION_DDOT":0},{"OBJECT_NAME":"ARIANE 40 R/B","OBJECT_ID":"1991-050F","EPOCH":"2026-03-27T03:41:41.356896","MEAN_MOTION":14.42906003,"ECCENTRICITY":0.00036262,"INCLINATION":98.1976,"RA_OF_ASC_NODE":137.732,"ARG_OF_PERICENTER":41.8206,"MEAN_ANOMALY":318.3261,"EPHEMERIS_TYPE":0,"CLASSIFICATION_TYPE":"U","NORAD_CAT_ID":21610,"ELEMENT_SET_NO":999,"REV_AT_EPOCH":82151,"BSTAR":0.00010337693,"MEAN_MOTION_DOT":3.04e-6,"MEAN_MOTION_DDOT":0},{"OBJECT_NAME":"INTERCOSMOS 25","OBJECT_ID":"1991-086A","EPOCH":"2026-03-27T01:48:22.184064","MEAN_MOTION":12.12057217,"ECCENTRICITY":0.1486591,"INCLINATION":82.6018,"RA_OF_ASC_NODE":299.4982,"ARG_OF_PERICENTER":79.4738,"MEAN_ANOMALY":296.9843,"EPHEMERIS_TYPE":0,"CLASSIFICATION_TYPE":"U","NORAD_CAT_ID":21819,"ELEMENT_SET_NO":999,"REV_AT_EPOCH":49879,"BSTAR":0.00029723431,"MEAN_MOTION_DOT":1.552e-5,"MEAN_MOTION_DDOT":0},{"OBJECT_NAME":"SL-8 R/B","OBJECT_ID":"1992-008B","EPOCH":"2026-03-27T04:42:49.853376","MEAN_MOTION":13.75969576,"ECCENTRICITY":0.00359746,"INCLINATION":82.923,"RA_OF_ASC_NODE":254.7513,"ARG_OF_PERICENTER":86.1045,"MEAN_ANOMALY":86.4963,"EPHEMERIS_TYPE":0,"CLASSIFICATION_TYPE":"U","NORAD_CAT_ID":21876,"ELEMENT_SET_NO":999,"REV_AT_EPOCH":71182,"BSTAR":1.6943665e-5,"MEAN_MOTION_DOT":3.2e-7,"MEAN_MOTION_DDOT":0},{"OBJECT_NAME":"SL-8 R/B","OBJECT_ID":"1992-020B","EPOCH":"2026-03-27T05:20:56.584032","MEAN_MOTION":13.75550533,"ECCENTRICITY":0.00277037,"INCLINATION":82.9306,"RA_OF_ASC_NODE":140.7439,"ARG_OF_PERICENTER":247.5148,"MEAN_ANOMALY":176.1213,"EPHEMERIS_TYPE":0,"CLASSIFICATION_TYPE":"U","NORAD_CAT_ID":21938,"ELEMENT_SET_NO":999,"REV_AT_EPOCH":70354,"BSTAR":1.9978032e-5,"MEAN_MOTION_DOT":3.4e-7,"MEAN_MOTION_DDOT":0},{"OBJECT_NAME":"USA 81","OBJECT_ID":"1992-023A","EPOCH":"2026-03-27T04:38:00.278592","MEAN_MOTION":14.32373481,"ECCENTRICITY":0.00018454,"INCLINATION":85.005,"RA_OF_ASC_NODE":121.3403,"ARG_OF_PERICENTER":68.0623,"MEAN_ANOMALY":292.0765,"EPHEMERIS_TYPE":0,"CLASSIFICATION_TYPE":"U","NORAD_CAT_ID":21949,"ELEMENT_SET_NO":999,"REV_AT_EPOCH":9729,"BSTAR":5.6307207e-5,"MEAN_MOTION_DOT":1.72e-6,"MEAN_MOTION_DDOT":0},{"OBJECT_NAME":"COSMOS 2219","OBJECT_ID":"1992-076A","EPOCH":"2026-03-27T03:14:03.711552","MEAN_MOTION":14.14091411,"ECCENTRICITY":0.00179943,"INCLINATION":71.0627,"RA_OF_ASC_NODE":341.604,"ARG_OF_PERICENTER":181.6081,"MEAN_ANOMALY":178.4986,"EPHEMERIS_TYPE":0,"CLASSIFICATION_TYPE":"U","NORAD_CAT_ID":22219,"ELEMENT_SET_NO":999,"REV_AT_EPOCH":72084,"BSTAR":-9.8088295e-5,"MEAN_MOTION_DOT":-2.34e-6,"MEAN_MOTION_DDOT":0},{"OBJECT_NAME":"SL-16 R/B","OBJECT_ID":"1992-076B","EPOCH":"2026-03-27T06:40:10.063200","MEAN_MOTION":14.16864027,"ECCENTRICITY":0.00106683,"INCLINATION":71,"RA_OF_ASC_NODE":151.3276,"ARG_OF_PERICENTER":63.4408,"MEAN_ANOMALY":7.9194,"EPHEMERIS_TYPE":0,"CLASSIFICATION_TYPE":"U","NORAD_CAT_ID":22220,"ELEMENT_SET_NO":999,"REV_AT_EPOCH":72432,"BSTAR":2.865646e-6,"MEAN_MOTION_DOT":-4.2e-7,"MEAN_MOTION_DDOT":0},{"OBJECT_NAME":"COSMOS 2221","OBJECT_ID":"1992-080A","EPOCH":"2026-03-27T05:25:11.234208","MEAN_MOTION":14.96270424,"ECCENTRICITY":0.00154132,"INCLINATION":82.5006,"RA_OF_ASC_NODE":262.2779,"ARG_OF_PERICENTER":130.4081,"MEAN_ANOMALY":229.8489,"EPHEMERIS_TYPE":0,"CLASSIFICATION_TYPE":"U","NORAD_CAT_ID":22236,"ELEMENT_SET_NO":999,"REV_AT_EPOCH":78341,"BSTAR":0.00020659104,"MEAN_MOTION_DOT":2.363e-5,"MEAN_MOTION_DDOT":0},{"OBJECT_NAME":"SL-16 R/B","OBJECT_ID":"1992-093B","EPOCH":"2026-03-27T02:59:03.691392","MEAN_MOTION":14.15453631,"ECCENTRICITY":0.00064443,"INCLINATION":71.0232,"RA_OF_ASC_NODE":327.6686,"ARG_OF_PERICENTER":276.6837,"MEAN_ANOMALY":83.3552,"EPHEMERIS_TYPE":0,"CLASSIFICATION_TYPE":"U","NORAD_CAT_ID":22285,"ELEMENT_SET_NO":999,"REV_AT_EPOCH":71562,"BSTAR":0.00015750463,"MEAN_MOTION_DOT":2.6e-6,"MEAN_MOTION_DDOT":0},{"OBJECT_NAME":"COSMOS 2228","OBJECT_ID":"1992-094A","EPOCH":"2026-03-27T07:08:06.632736","MEAN_MOTION":14.9727715,"ECCENTRICITY":0.00167663,"INCLINATION":82.5183,"RA_OF_ASC_NODE":220.4511,"ARG_OF_PERICENTER":240.3436,"MEAN_ANOMALY":119.6117,"EPHEMERIS_TYPE":0,"CLASSIFICATION_TYPE":"U","NORAD_CAT_ID":22286,"ELEMENT_SET_NO":999,"REV_AT_EPOCH":77869,"BSTAR":0.00022129631,"MEAN_MOTION_DOT":2.596e-5,"MEAN_MOTION_DDOT":0},{"OBJECT_NAME":"SL-16 R/B","OBJECT_ID":"1993-016B","EPOCH":"2026-03-27T07:23:18.172608","MEAN_MOTION":14.15305402,"ECCENTRICITY":0.00123327,"INCLINATION":71.0078,"RA_OF_ASC_NODE":178.1805,"ARG_OF_PERICENTER":291.371,"MEAN_ANOMALY":68.6096,"EPHEMERIS_TYPE":0,"CLASSIFICATION_TYPE":"U","NORAD_CAT_ID":22566,"ELEMENT_SET_NO":999,"REV_AT_EPOCH":70466,"BSTAR":-2.4431282e-5,"MEAN_MOTION_DOT":-9.5e-7,"MEAN_MOTION_DDOT":0},{"OBJECT_NAME":"COSMOS 2242","OBJECT_ID":"1993-024A","EPOCH":"2026-03-26T22:52:02.504928","MEAN_MOTION":14.96620712,"ECCENTRICITY":0.0015008,"INCLINATION":82.516,"RA_OF_ASC_NODE":250.199,"ARG_OF_PERICENTER":245.1611,"MEAN_ANOMALY":114.8051,"EPHEMERIS_TYPE":0,"CLASSIFICATION_TYPE":"U","NORAD_CAT_ID":22626,"ELEMENT_SET_NO":999,"REV_AT_EPOCH":78297,"BSTAR":0.00018284,"MEAN_MOTION_DOT":2.113e-5,"MEAN_MOTION_DDOT":0}]
